     2              NAVIGATION DATA                         RINEX VERSION / TYPE
CCRINEXN V1.6.0 UX  CDDIS               18-JUL-25 23:31     PGM / RUN BY / DATE 
IGS BROADCAST EPHEMERIS FILE                                COMMENT             
    0.1304D-07  0.2235D-07 -0.5960D-07 -0.1192D-06          ION ALPHA           
    0.1126D+06  0.1638D+06 -0.6554D+05 -0.4588D+06          ION BETA            
    0.558793544769D-08 0.142108547152D-13   589824     2375 DELTA-UTC: A0,A1,T,W
    18                                                      LEAP SECONDS        
                                                            END OF HEADER       
10 25  7 17 22  0  0.0-0.483635347337D-03-0.977706804406D-11 0.000000000000D+00
    0.107000000000D+03-0.459375000000D+01 0.384551732409D-08-0.166979413201D+01
   -0.305473804474D-06 0.102456841851D-01 0.873766839504D-05 0.515364902306D+04
    0.424800000000D+06 0.152736902237D-06 0.196648880806D+01-0.670552253723D-07
    0.989820277850D+00 0.221968750000D+03-0.231904550544D+01-0.762996067563D-08
    0.463947896721D-09 0.100000000000D+01 0.237500000000D+04 0.000000000000D+00
    0.280000000000D+01 0.000000000000D+00 0.232830643654D-08 0.107000000000D+03
    0.417618000000D+06 0.400000000000D+01 0.000000000000D+00 0.000000000000D+00
11 25  7 17 22  0  0.0-0.669889152050D-03 0.932232069317D-11 0.000000000000D+00
    0.960000000000D+02-0.631875000000D+02 0.422624746874D-08 0.187170267232D+01
   -0.316463410854D-05 0.194713799283D-02 0.703893601894D-05 0.515369792748D+04
    0.424800000000D+06-0.130385160446D-07 0.956753845415D+00-0.298023223877D-07
    0.965238487932D+00 0.241875000000D+03-0.242131929040D+01-0.812962434577D-08
   -0.103932900651D-09 0.100000000000D+01 0.237500000000D+04 0.000000000000D+00
    0.200000000000D+01 0.000000000000D+00-0.884756445885D-08 0.864000000000D+03
    0.417618000000D+06 0.400000000000D+01 0.000000000000D+00 0.000000000000D+00
12 25  7 17 22  0  0.0-0.592697411776D-03-0.136424205266D-11 0.000000000000D+00
    0.790000000000D+02 0.701875000000D+02 0.458554814934D-08-0.944328171813D+00
    0.368617475033D-05 0.870028079953D-02 0.921823084354D-05 0.515366219902D+04
    0.424800000000D+06-0.117346644402D-06-0.111322063479D+01 0.968575477600D-07
    0.959747208409D+00 0.201843750000D+03 0.151658158488D+01-0.819391273793D-08
   -0.242867259253D-10 0.100000000000D+01 0.237500000000D+04 0.000000000000D+00
    0.200000000000D+01 0.000000000000D+00-0.125728547573D-07 0.790000000000D+02
    0.417618000000D+06 0.400000000000D+01 0.000000000000D+00 0.000000000000D+00
13 25  7 17 22  0  0.0 0.700787175447D-03-0.341060513165D-12 0.000000000000D+00
    0.270000000000D+02-0.267187500000D+02 0.458233372974D-08 0.235351157451D+01
   -0.152923166752D-05 0.946884811856D-02 0.647641718388D-05 0.515367870903D+04
    0.424800000000D+06-0.353902578354D-07-0.313104137303D+01-0.186264514923D-06
    0.974595973206D+00 0.262062500000D+03 0.970588892832D+00-0.791247244338D-08
    0.910752222200D-10 0.100000000000D+01 0.237500000000D+04 0.000000000000D+00
    0.200000000000D+01 0.000000000000D+00-0.116415300000D-07 0.270000000000D+02
    0.417660000000D+06 0.400000000000D+01 0.000000000000D+00 0.000000000000D+00
14 25  7 17 22  0  0.0 0.673502683640D-03 0.466116034659D-11 0.000000000000D+00
    0.110000000000D+02 0.861250000000D+02 0.478769942690D-08-0.110744635084D+01
    0.433251261711D-05 0.605654949322D-02 0.976026058197D-05 0.515371526337D+04
    0.424800000000D+06 0.176951289177D-06-0.116424206061D+01-0.143423676491D-06
    0.943058275534D+00 0.184468750000D+03-0.277851698859D+01-0.816033991091D-08
   -0.417874549009D-10 0.100000000000D+01 0.237500000000D+04 0.000000000000D+00
    0.200000000000D+01 0.000000000000D+00-0.791624188423D-08 0.110000000000D+02
    0.418212000000D+06 0.400000000000D+01 0.000000000000D+00 0.000000000000D+00
15 25  7 17 22  0  0.0 0.318466220051D-03 0.397903932026D-11 0.000000000000D+00
    0.740000000000D+02-0.177187500000D+02 0.541915430096D-08 0.158735291679D+01
   -0.120513141155D-05 0.164894632762D-01 0.622868537903D-05 0.515360704994D+04
    0.424800000000D+06-0.143423676491D-06 0.284183480409D+01-0.450760126114D-06
    0.940097083571D+00 0.250500000000D+03 0.143580342810D+01-0.847285292833D-08
    0.311441544219D-09 0.100000000000D+01 0.237500000000D+04 0.000000000000D+00
    0.280000000000D+01 0.000000000000D+00-0.102445483208D-07 0.740000000000D+02
    0.417618000000D+06 0.400000000000D+01 0.000000000000D+00 0.000000000000D+00
16 25  7 17 22  0  0.0 0.620093196630D-04 0.818545231596D-11 0.000000000000D+00
    0.540000000000D+02 0.863125000000D+02 0.441232664826D-08-0.270722513434D+01
    0.441633164883D-05 0.144492047839D-01 0.852160155773D-05 0.515376893234D+04
    0.424800000000D+06 0.912696123123D-07-0.109590029916D+01-0.894069671631D-07
    0.959009587559D+00 0.213687500000D+03 0.888584990640D+00-0.779675333750D-08
    0.825034365993D-10 0.100000000000D+01 0.237500000000D+04 0.000000000000D+00
    0.200000000000D+01 0.000000000000D+00-0.102445483208D-07 0.540000000000D+02
    0.417918000000D+06 0.400000000000D+01 0.000000000000D+00 0.000000000000D+00
17 25  7 17 22  0  0.0 0.186678022146D-03-0.163709046319D-10 0.000000000000D+00
    0.270000000000D+02 0.325937500000D+02 0.449268713845D-08 0.260088138401D+01
    0.182166695595D-05 0.130635423120D-01 0.372715294361D-05 0.515372080421D+04
    0.424800000000D+06 0.745058059692D-07-0.768341193981D-01 0.391155481338D-07
    0.962884325048D+00 0.306531250000D+03-0.120765046221D+01-0.810462330438D-08
   -0.117504894550D-09 0.100000000000D+01 0.237500000000D+04 0.000000000000D+00
    0.200000000000D+01 0.000000000000D+00-0.111758708954D-07 0.270000000000D+02
    0.423402000000D+06 0.400000000000D+01 0.000000000000D+00 0.000000000000D+00
18 25  7 17 22  0  0.0-0.592589844018D-03 0.682121026330D-11 0.000000000000D+00
    0.630000000000D+02-0.413437500000D+02 0.406802659249D-08 0.582939886266D+00
   -0.214762985706D-05 0.537274486851D-02 0.701099634171D-05 0.515368994141D+04
    0.424800000000D+06 0.428408384323D-07 0.931124019521D+00 0.104308128357D-06
    0.973400877391D+00 0.251781250000D+03-0.294426887513D+01-0.803247744207D-08
   -0.728601777760D-10 0.100000000000D+01 0.237500000000D+04 0.000000000000D+00
    0.200000000000D+01 0.000000000000D+00-0.838190317154D-08 0.319000000000D+03
    0.417618000000D+06 0.400000000000D+01 0.000000000000D+00 0.000000000000D+00
19 25  7 17 22  0  0.0 0.647095032036D-03 0.306954461848D-11 0.000000000000D+00
    0.750000000000D+02 0.273750000000D+02 0.455054669139D-08-0.184181892203D+01
    0.144727528095D-05 0.107543810736D-01 0.441074371338D-05 0.515364953995D+04
    0.424800000000D+06-0.184401869774D-06-0.327917095863D-01-0.912696123123D-07
    0.962110178059D+00 0.297906250000D+03 0.282250772814D+01-0.835499087605D-08
    0.778603860548D-10 0.100000000000D+01 0.237500000000D+04 0.000000000000D+00
    0.200000000000D+01 0.000000000000D+00-0.153668200000D-07 0.750000000000D+02
    0.417630000000D+06 0.400000000000D+01 0.000000000000D+00 0.000000000000D+00
20 25  7 17 22  0  0.0 0.363533850759D-03-0.227373675443D-12 0.000000000000D+00
    0.710000000000D+02-0.250000000000D+02 0.449483008486D-08 0.816429634360D+00
   -0.151433050632D-05 0.337190832943D-02 0.911392271519D-05 0.515354707909D+04
    0.424800000000D+06 0.000000000000D+00 0.177611264407D+01 0.372529029846D-07
    0.958933885937D+00 0.202031250000D+03-0.226571957696D+01-0.812033824468D-08
    0.307869966877D-09 0.100000000000D+01 0.237500000000D+04 0.000000000000D+00
    0.200000000000D+01 0.000000000000D+00-0.838190317154D-08 0.710000000000D+02
    0.417618000000D+06 0.400000000000D+01 0.000000000000D+00 0.000000000000D+00
21 25  7 17 22  0  0.0 0.114276073873D-03 0.289901436190D-10 0.000000000000D+00
    0.170000000000D+02-0.160625000000D+02 0.454590364085D-08-0.254350340943D+01
   -0.105984508991D-05 0.151585205458D-03 0.884383916855D-05 0.515363303566D+04
    0.424800000000D+06 0.707805156708D-07 0.198209331780D+01 0.372529029846D-08
    0.959662616634D+00 0.207375000000D+03 0.105016047867D+01-0.809498004555D-08
    0.426089176896D-09 0.100000000000D+01 0.237500000000D+04 0.000000000000D+00
    0.400000000000D+01 0.000000000000D+00-0.838190317154D-08 0.529000000000D+03
    0.417618000000D+06 0.400000000000D+01 0.000000000000D+00 0.000000000000D+00
22 25  7 17 22  0  0.0-0.100344885141D-03 0.102318153950D-11 0.000000000000D+00
    0.720000000000D+02 0.915312500000D+02 0.434125225915D-08-0.314118771786D+01
    0.473484396934D-05 0.130485813133D-01 0.975653529167D-05 0.515365484047D+04
    0.424800000000D+06 0.949949026108D-07-0.109258363859D+01 0.100582838059D-06
    0.958411662218D+00 0.189656250000D+03-0.105766509627D+01-0.778282418587D-08
   -0.225009372544D-10 0.100000000000D+01 0.237500000000D+04 0.000000000000D+00
    0.200000000000D+01 0.000000000000D+00-0.111758708954D-07 0.720000000000D+02
    0.420372000000D+06 0.400000000000D+01 0.000000000000D+00 0.000000000000D+00
23 25  7 17 22  0  0.0 0.512325204909D-03 0.613908923697D-11 0.000000000000D+00
    0.680000000000D+02-0.177500000000D+02 0.396373653411D-08-0.478769300743D+00
   -0.813975930214D-06 0.539593223948D-02 0.861100852490D-05 0.515366306877D+04
    0.424800000000D+06 0.596046447754D-07 0.193548168883D+01 0.130385160446D-07
    0.984878660538D+00 0.226437500000D+03-0.285092040165D+01-0.784639826255D-08
    0.379658671450D-09 0.100000000000D+01 0.237500000000D+04 0.000000000000D+00
    0.200000000000D+01 0.000000000000D+00-0.838190317154D-08 0.580000000000D+03
    0.417618000000D+06 0.400000000000D+01 0.000000000000D+00 0.000000000000D+00
